OBJECT_NAME,OBJECT_ID,EPOCH,MEAN_MOTION,ECCENTRICITY,INCLINATION,RA_OF_ASC_NODE,ARG_OF_PERICENTER,MEAN_ANOMALY,EPHEMERIS_TYPE,CLASSIFICATION_TYPE,NORAD_CAT_ID,ELEMENT_SET_NO,REV_AT_EPOCH,BSTAR,MEAN_MOTION_DOT,MEAN_MOTION_DDOT
LEMUR-2-FINNIAN,2025-276DX,2026-06-30T03:37:54.918912,15.00481518,.00085956,97.5328,251.7348,51.2340,308.9651,0,U,66782,999,2194,.23721432E-3,.2931E-4,0
LEMUR-2-STARLIGHT,2025-276DY,2026-06-30T04:27:42.837408,14.99188228,.00146359,97.5237,251.3802,90.7411,269.5489,0,U,66783,999,3214,.50511919E-3,.6108E-4,0
LEMUR-2-TARTIFLETTE,2025-276DZ,2026-06-30T04:25:18.400800,14.99191276,.00136396,97.5241,251.3864,98.1987,262.0784,0,U,66784,999,3214,.4249391E-3,.5128E-4,0
LEMUR-2-VUKASIN,2025-276EA,2026-06-30T04:00:08.558208,15.00435599,.00051858,97.5280,251.6977,94.3180,265.8637,0,U,66785,999,3209,.11226057E-3,.1355E-4,0
LEMUR-2-HOTSPUR-TOM,2025-276EB,2026-06-30T10:40:20.803872,14.99095186,.00143969,97.5235,251.6164,89.0798,271.2075,0,U,66786,999,3211,.45990438E-3,.5542E-4,0
LEMUR-2-MYRA,2025-276EC,2026-06-29T22:22:21.044928,15.00418716,.00180031,97.5219,251.3956,100.7876,259.5376,0,U,66787,999,3212,.60562779E-3,.7586E-4,0
LEMUR-2 FIKRETDENGIZ,2026-004A,2026-06-29T23:24:07.214400,14.88416863,.00105452,97.8011,179.3366,97.2500,262.9916,0,U,67363,999,2518,.43531458E-3,.3986E-4,0
TWILIGHT-1 OBJECT B,2026-004B,2026-06-29T22:30:27.043200,14.87746800,.00102713,97.8064,179.3095,88.5643,271.6750,0,U,67364,999,2518,.22909846E-3,.2037E-4,0
LEMUR-2-MARIO-SOUSA,2026-004C,2026-06-29T22:58:08.531616,14.88616676,.0010244,97.7986,179.3148,98.5300,261.7078,0,U,67365,999,2519,.55507865E-3,.5124E-4,0
LEMUR-2-SONNENBLUME,2026-004E,2026-06-30T11:52:56.594208,14.88385156,.00097386,97.7983,179.8240,98.4159,261.8163,0,U,67367,999,2527,.31286942E-3,.2847E-4,0
LEMUR-2-WOBLER,2026-004F,2026-06-29T22:46:30.102528,14.88603443,.00100563,97.8036,179.4215,91.3444,268.8925,0,U,67368,999,2519,.49983798E-3,.4607E-4,0
LEMUR-2-GRAM-E-SUE,2026-004H,2026-06-30T11:28:10.077888,14.88528878,.00088481,97.7970,179.8228,100.3347,259.8868,0,U,67370,999,2527,.30007713E-3,.2737E-4,0
LEMUR-2-KATIE,2026-004AA,2026-06-29T23:32:34.941408,14.90125871,.00045341,97.8031,179.8346,65.7582,294.4109,0,U,67387,999,2521,.35684773E-3,.3397E-4,0
LEMUR-2-HCS-BAZUS,2026-004AB,2026-06-30T05:57:27.963648,14.90192916,.0003934,97.8019,180.0784,64.4548,295.7076,0,U,67388,999,2525,.47800775E-3,.4578E-4,0
